0 FENGYUN 1C DEB
1 30740U 99025ATA 13282.79518981  .00001675  00000-0  83019-3 0  5699
2 30740 098.9262 305.6336 0053973 104.6419 310.1286 14.17833093342784
0 FENGYUN 1C DEB
1 30740U 99025ATA 13286.04131326  .00001903  00000-0  94022-3 0  5718
2 30740 098.9252 308.8960 0053796 095.5332 318.8850 14.17844275343244
0 FENGYUN 1C DEB
1 30740U 99025ATA 13287.80551681  .00002776  00000-0  13613-2 0  5729
2 30740 098.9252 310.6685 0053801 090.4934 323.8266 14.17851069343491
0 FENGYUN 1C DEB
1 30740U 99025ATA 13289.00631185  .00002809  00000-0  13773-2 0  5736
2 30740 098.9247 311.8753 0053734 087.1112 332.9737 14.17858795343666
0 FENGYUN 1C DEB
1 30740U 99025ATA 13290.36001888  .00002658  00000-0  13044-2 0  5742
2 30740 098.9244 313.2360 0053658 083.3314 042.6232 14.17864783343850
0 FENGYUN 1C DEB
1 30740U 99025ATA 13291.75862337  .00002710  00000-0  13292-2 0  5755
2 30740 098.9241 314.6412 0053523 079.3883 341.5114 14.17870179344056
0 FENGYUN 1C DEB
1 30740U 99025ATA 13293.02738947  .00002861  00000-0  14022-2 0  5766
2 30740 098.9241 315.9161 0053432 075.7852 337.7162 14.17875296344231
0 FENGYUN 1C DEB
1 30740U 99025ATA 13294.53063057  .00002742  00000-0  13445-2 0  5773
2 30740 098.9244 317.4265 0053350 071.5388 090.7680 14.17884292344443
0 FENGYUN 1C DEB
1 30740U 99025ATA 13295.65187127  .00002787  00000-0  13659-2 0  5789
2 30740 098.9245 318.5531 0053286 068.3642 053.9986 14.17889505344607
